{
  "norad_id": 45140,
  "name": "ONEWEB-0028",
  "history": [
    {
      "epoch": "2026-03-28T22:15:30.548160Z",
      "apogee_km": 1218.8160933250292,
      "perigee_km": 1216.5607408421902,
      "latitude_deg": 1.7733209462014415e-05,
      "longitude_deg": -123.19284280820949,
      "height_km": 1220.7101656692557,
      "semi_major_axis_km": 7595.82541708361,
      "eccentricity": 0.00014846,
      "inclination_deg": 87.8891,
      "raan_deg": 37.0253,
      "arg_perigee_deg": 96.8737,
      "mean_anomaly_deg": 263.256,
      "mean_motion_rev_day": 13.11415464
    },
    {
      "epoch": "2026-03-29T03:45:06.690816Z",
      "apogee_km": 1218.8159672566626,
      "perigee_km": 1216.5584882961666,
      "latitude_deg": 7.095820334764946e-06,
      "longitude_deg": 154.1354576418784,
      "height_km": 1220.7120661120443,
      "semi_major_axis_km": 7595.824227776415,
      "eccentricity": 0.0001486,
      "inclination_deg": 87.8892,
      "raan_deg": 36.9798,
      "arg_perigee_deg": 97.0251,
      "mean_anomaly_deg": 263.1046,
      "mean_motion_rev_day": 13.11415772
    },
    {
      "epoch": "2026-03-30T03:33:23.304096Z",
      "apogee_km": 1218.832901024768,
      "perigee_km": 1216.5359246295302,
      "latitude_deg": 4.455041961130088e-05,
      "longitude_deg": 155.89131682349338,
      "height_km": 1220.7286061111733,
      "semi_major_axis_km": 7595.821412827149,
      "eccentricity": 0.0001512,
      "inclination_deg": 87.8895,
      "raan_deg": 36.7825,
      "arg_perigee_deg": 97.8793,
      "mean_anomaly_deg": 262.2507,
      "mean_motion_rev_day": 13.11416501
    },
    {
      "epoch": "2026-03-30T05:23:15.342432Z",
      "apogee_km": 1218.8359625622024,
      "perigee_km": 1216.5319981424427,
      "latitude_deg": -6.5053807567023424e-06,
      "longitude_deg": 128.33408714115507,
      "height_km": 1220.729348058657,
      "semi_major_axis_km": 7595.820980352322,
      "eccentricity": 0.00015166,
      "inclination_deg": 87.8895,
      "raan_deg": 36.7673,
      "arg_perigee_deg": 97.9142,
      "mean_anomaly_deg": 262.2158,
      "mean_motion_rev_day": 13.11416613
    },
    {
      "epoch": "2026-03-30T07:13:07.341888Z",
      "apogee_km": 1218.8358507135572,
      "perigee_km": 1216.5282408874427,
      "latitude_deg": 6.53730765832141e-05,
      "longitude_deg": 100.77702440972372,
      "height_km": 1220.7270684164316,
      "semi_major_axis_km": 7595.819045800499,
      "eccentricity": 0.0001519,
      "inclination_deg": 87.8896,
      "raan_deg": 36.7521,
      "arg_perigee_deg": 97.885,
      "mean_anomaly_deg": 262.2451,
      "mean_motion_rev_day": 13.11417114
    },
    {
      "epoch": "2026-03-30T21:52:03.713376Z",
      "apogee_km": 1218.84198011841,
      "perigee_km": 1216.5229764316937,
      "latitude_deg": -1.37231119415156e-05,
      "longitude_deg": -119.68077171216436,
      "height_km": 1220.731380257521,
      "semi_major_axis_km": 7595.819478275052,
      "eccentricity": 0.00015265,
      "inclination_deg": 87.8897,
      "raan_deg": 36.6308,
      "arg_perigee_deg": 98.0395,
      "mean_anomaly_deg": 262.0906,
      "mean_motion_rev_day": 13.11417002
    },
    {
      "epoch": "2026-03-31T19:50:28.074048Z",
      "apogee_km": 1218.860657114481,
      "perigee_km": 1216.4968392536448,
      "latitude_deg": -4.5345094952914536e-05,
      "longitude_deg": -90.36679125664546,
      "height_km": 1220.7323588445447,
      "semi_major_axis_km": 7595.815748184063,
      "eccentricity": 0.0001556,
      "inclination_deg": 87.89,
      "raan_deg": 36.4487,
      "arg_perigee_deg": 98.1186,
      "mean_anomaly_deg": 262.0118,
      "mean_motion_rev_day": 13.11417968
    },
    {
      "epoch": "2026-04-01T14:09:08.374464Z",
      "apogee_km": 1218.8740527491473,
      "perigee_km": 1216.4844089629205,
      "latitude_deg": -3.715561839655441e-05,
      "longitude_deg": -5.93852242488004,
      "height_km": 1220.7351321579629,
      "semi_major_axis_km": 7595.816230856034,
      "eccentricity": 0.0001573,
      "inclination_deg": 87.8902,
      "raan_deg": 36.2969,
      "arg_perigee_deg": 98.1426,
      "mean_anomaly_deg": 261.988,
      "mean_motion_rev_day": 13.11417843
    },
    {
      "epoch": "2026-04-02T21:16:52.694400Z",
      "apogee_km": 1218.8587649084284,
      "perigee_km": 1216.490846536114,
      "latitude_deg": -6.555448216130696e-05,
      "longitude_deg": -114.40931043050242,
      "height_km": 1220.7336229444797,
      "semi_major_axis_km": 7595.811805722271,
      "eccentricity": 0.00015587,
      "inclination_deg": 87.8903,
      "raan_deg": 36.0392,
      "arg_perigee_deg": 98.3588,
      "mean_anomaly_deg": 261.7716,
      "mean_motion_rev_day": 13.11418989
    },
    {
      "epoch": "2026-04-03T19:15:15.829920Z",
      "apogee_km": 1218.9262052495533,
      "perigee_km": 1216.355793974485,
      "latitude_deg": 4.9717084580002777e-05,
      "longitude_deg": -85.09030705979428,
      "height_km": 1220.6771587479996,
      "semi_major_axis_km": 7595.777999612019,
      "eccentricity": 0.0001692,
      "inclination_deg": 87.8912,
      "raan_deg": 35.857,
      "arg_perigee_deg": 96.6889,
      "mean_anomaly_deg": 263.4432,
      "mean_motion_rev_day": 13.11427744
    },
    {
      "epoch": "2026-04-04T06:14:28.053888Z",
      "apogee_km": 1218.8840128659413,
      "perigee_km": 1216.425255114018,
      "latitude_deg": 4.646558463400467e-05,
      "longitude_deg": 109.56645043777888,
      "height_km": 1220.7152601790385,
      "semi_major_axis_km": 7595.791633989979,
      "eccentricity": 0.00016185,
      "inclination_deg": 87.8902,
      "raan_deg": 35.7659,
      "arg_perigee_deg": 98.1384,
      "mean_anomaly_deg": 261.9928,
      "mean_motion_rev_day": 13.11424213
    },
    {
      "epoch": "2026-04-05T07:52:36.479136Z",
      "apogee_km": 1218.9141482854038,
      "perigee_km": 1216.4105728161667,
      "latitude_deg": -4.390621598694911e-05,
      "longitude_deg": 83.7669209267887,
      "height_km": 1220.6978908062551,
      "semi_major_axis_km": 7595.7993605507845,
      "eccentricity": 0.0001648,
      "inclination_deg": 87.8906,
      "raan_deg": 35.5543,
      "arg_perigee_deg": 96.8357,
      "mean_anomaly_deg": 263.2958,
      "mean_motion_rev_day": 13.11422212
    },
    {
      "epoch": "2026-04-06T05:51:00.772416Z",
      "apogee_km": 1218.9629627307804,
      "perigee_km": 1216.3860077263016,
      "latitude_deg": 4.3409622519762814e-05,
      "longitude_deg": 113.08088423872849,
      "height_km": 1220.7334299060103,
      "semi_major_axis_km": 7595.811485228541,
      "eccentricity": 0.00016963,
      "inclination_deg": 87.8905,
      "raan_deg": 35.3719,
      "arg_perigee_deg": 97.6937,
      "mean_anomaly_deg": 262.4384,
      "mean_motion_rev_day": 13.11419072
    },
    {
      "epoch": "2026-04-07T12:58:45.562368Z",
      "apogee_km": 1219.0105720486654,
      "perigee_km": 1216.3716294499027,
      "latitude_deg": -4.195168218786526e-05,
      "longitude_deg": 4.608025796435772,
      "height_km": 1220.742966604128,
      "semi_major_axis_km": 7595.828100749283,
      "eccentricity": 0.00017371,
      "inclination_deg": 87.8905,
      "raan_deg": 35.1141,
      "arg_perigee_deg": 97.205,
      "mean_anomaly_deg": 262.9275,
      "mean_motion_rev_day": 13.11414769
    },
    {
      "epoch": "2026-04-07T20:18:13.791744Z",
      "apogee_km": 1219.0175279272162,
      "perigee_km": 1216.3681024876723,
      "latitude_deg": 7.634391093123136e-05,
      "longitude_deg": -105.62110002462911,
      "height_km": 1220.7432498461678,
      "semi_major_axis_km": 7595.829815207444,
      "eccentricity": 0.0001744,
      "inclination_deg": 87.8906,
      "raan_deg": 35.0534,
      "arg_perigee_deg": 97.1153,
      "mean_anomaly_deg": 263.0174,
      "mean_motion_rev_day": 13.11414325
    },
    {
      "epoch": "2026-04-08T12:47:02.276736Z",
      "apogee_km": 1219.0248122124367,
      "perigee_km": 1216.3603471124825,
      "latitude_deg": 5.9141571717450605e-05,
      "longitude_deg": 6.363461365278188,
      "height_km": 1220.7414603792054,
      "semi_major_axis_km": 7595.829579662459,
      "eccentricity": 0.00017539,
      "inclination_deg": 87.8905,
      "raan_deg": 34.9168,
      "arg_perigee_deg": 97.0083,
      "mean_anomaly_deg": 263.1245,
      "mean_motion_rev_day": 13.11414386
    },
    {
      "epoch": "2026-04-09T19:54:47.435616Z",
      "apogee_km": 1219.0603334390407,
      "perigee_km": 1216.3334290756693,
      "latitude_deg": -2.125923017401485e-05,
      "longitude_deg": -102.11093869828142,
      "height_km": 1220.742535312262,
      "semi_major_axis_km": 7595.833881257355,
      "eccentricity": 0.0001795,
      "inclination_deg": 87.8905,
      "raan_deg": 34.659,
      "arg_perigee_deg": 96.7132,
      "mean_anomaly_deg": 263.42,
      "mean_motion_rev_day": 13.11413272
    },
    {
      "epoch": "2026-04-10T12:23:35.970720Z",
      "apogee_km": 1219.0778838217848,
      "perigee_km": 1216.3099630332872,
      "latitude_deg": -3.6381079096231195e-05,
      "longitude_deg": 9.873513765259695,
      "height_km": 1220.7374833646024,
      "semi_major_axis_km": 7595.830923427536,
      "eccentricity": 0.0001822,
      "inclination_deg": 87.8905,
      "raan_deg": 34.5225,
      "arg_perigee_deg": 96.5279,
      "mean_anomaly_deg": 263.6056,
      "mean_motion_rev_day": 13.11414038
    },
    {
      "epoch": "2026-04-11T12:11:52.872576Z",
      "apogee_km": 1219.097063894611,
      "perigee_km": 1216.2926827669771,
      "latitude_deg": -1.0330913245484553e-05,
      "longitude_deg": 11.628464291663503,
      "height_km": 1220.7400093865622,
      "semi_major_axis_km": 7595.831873330793,
      "eccentricity": 0.0001846,
      "inclination_deg": 87.8908,
      "raan_deg": 34.3255,
      "arg_perigee_deg": 96.5093,
      "mean_anomaly_deg": 263.6245,
      "mean_motion_rev_day": 13.11413792
    }
  ]
}